H1 CPF 01  gfz 2022 06 22 00  6731 terrasarx 
H2 0702601  6201 31698    2022 06 22 00 59 42 2022 06 27 00 00 42   120 1 1  0 0 0
H9
10 0 59754  79182.000000  0   -1575902.884   4060261.379  -5344379.951
10 0 59754  79302.000000  0   -1108678.055   3459474.584  -5859910.988
10 0 59754  79422.000000  0    -633328.258   2790420.647  -6273052.379
10 0 59754  79542.000000  0    -159202.311   2064686.617  -6576674.438
10 0 59754  79662.000000  0     304598.522   1294976.937  -6765547.808
10 0 59754  79782.000000  0     749390.393    494892.311  -6836424.843
10 0 59754  79902.000000  0    1167065.829   -321306.697  -6788089.595
10 0 59754  80022.000000  0    1550237.641  -1138949.047  -6621375.238
10 0 59754  80142.000000  0    1892365.953  -1943209.800  -6339150.284
10 0 59754  80262.000000  0    2187868.340  -2719371.853  -5946275.102
10 0 59754  80382.000000  0    2432210.788  -3453090.692  -5449528.546
10 0 59754  80502.000000  0    2621978.947  -4130660.277  -4857502.145
10 0 59754  80622.000000  0    2754926.500  -4739270.421  -4180460.460
10 0 59754  80742.000000  0    2830000.380  -5267252.169  -3430174.028
10 0 59754  80862.000000  0    2847342.485  -5704309.950  -2619724.179
10 0 59754  80982.000000  0    2808267.265  -6041731.889  -1763279.681
10 0 59754  81102.000000  0    2715215.853  -6272573.665   -875850.447
10 0 59754  81222.000000  0    2571685.317  -6391810.445     26979.430
10 0 59754  81342.000000  0    2382135.088  -6396450.534    929331.693
10 0 59754  81462.000000  0    2151874.099  -6285610.220   1815320.668
10 0 59754  81582.000000  0    1886929.865  -6060545.650   2669343.386
10 0 59754  81702.000000  0    1593903.294  -5724639.907   3476362.542
10 0 59754  81822.000000  0    1279813.521  -5283347.986   4222177.064
10 0 59754  81942.000000  0     951936.614  -4744101.403   4893674.982
10 0 59754  82062.000000  0     617642.316  -4116175.586   5479065.616
10 0 59754  82182.000000  0     284231.676  -3410520.181   5968085.653
10 0 59754  82302.000000  0     -41218.803  -2639558.124   6352173.739
10 0 59754  82422.000000  0    -352004.371  -1816960.797   6624613.096
10 0 59754  82542.000000  0    -641927.324   -957402.826   6780642.937
10 0 59754  82662.000000  0    -905418.726    -76298.726   6817537.798
10 0 59754  82782.000000  0   -1137644.404    810474.352   6734652.504
10 0 59754  82902.000000  0   -1334593.179   1686862.360   6533432.400
10 0 59754  83022.000000  0   -1493146.034   2536924.174   6217389.772
10 0 59754  83142.000000  0   -1611125.831   3345121.712   5792046.450
10 0 59754  83262.000000  0   -1687326.313   4096605.596   5264842.473
10 0 59754  83382.000000  0   -1721519.774   4777492.131   4645012.982
10 0 59754  83502.000000  0   -1714444.045   5375127.109   3943431.831
10 0 59754  83622.000000  0   -1667767.622   5878329.492   3172424.290
10 0 59754  83742.000000  0   -1584035.509   6277609.716   2345551.663
10 0 59754  83862.000000  0   -1466595.313   6565358.327   1477370.746
10 0 59754  83982.000000  0   -1319504.132   6735999.028    583172.366
10 0 59754  84102.000000  0   -1147420.032   6786101.684   -321294.487
10 0 59754  84222.000000  0    -955480.883   6714454.582  -1220108.774
10 0 59754  84342.000000  0    -749172.244   6522089.586  -2097469.250
10 0 59754  84462.000000  0    -534189.795   6212259.113  -2937980.136
10 0 59754  84582.000000  0    -316299.849   5790370.506  -3726924.571
10 0 59754  84702.000000  0    -101200.448   5263880.514  -4450522.980
10 0 59754  84822.000000  0     105613.342   4642151.227  -5096171.552
10 0 59754  84942.000000  0     298977.046   3936272.127  -5652655.947
10 0 59754  85062.000000  0     474174.296   3158852.169  -6110337.821
10 0 59754  85182.000000  0     627041.240   2323786.832  -6461310.822
10 0 59754  85302.000000  0     754056.547   1446006.748  -6699525.293
10 0 59754  85422.000000  0     852415.723    541211.893  -6820882.414
10 0 59754  85542.000000  0     920088.197   -374405.374  -6823297.275
10 0 59754  85662.000000  0     955856.681  -1284444.662  -6706730.143
10 0 59754  85782.000000  0     959338.190  -2172583.400  -6473185.243
10 0 59754  85902.000000  0     930987.255  -3022861.088  -6126680.946
10 0 59754  86022.000000  0     872080.605  -3819962.444  -5673190.308
10 0 59754  86142.000000  0     784682.769  -4549492.769  -5120547.106
10 0 59754  86262.000000  0     671594.879  -5198239.321  -4478321.575
10 0 59754  86382.000000  0     536285.779  -5754417.007  -3757666.261
10 0 59755    102.000000  0     382806.932  -6207892.138  -2971131.144
10 0 59755    222.000000  0     215692.933  -6550378.464  -2132451.689
10 0 59755    342.000000  0      39849.701  -6775602.164  -1256311.858
10 0 59755    462.000000  0    -139567.584  -6879429.019   -358084.997
10 0 59755    582.000000  0    -317283.669  -6859949.734    546440.747
10 0 59755    702.000000  0    -488036.318  -6717521.928   1441346.542
10 0 59755    822.000000  0    -646709.996  -6454767.400   2310871.922
10 0 59755    942.000000  0    -788466.597  -6076522.882   3139702.141
10 0 59755   1062.000000  0    -908868.580  -5589744.559   3913246.524
10 0 59755   1182.000000  0   -1003993.093  -5003371.053   4617899.240
10 0 59755   1302.000000  0   -1070534.119  -4328150.005   5241280.113
10 0 59755   1422.000000  0   -1105889.126  -3576432.037   5772451.918
10 0 59755   1542.000000  0   -1108229.642  -2761934.473   6202109.948
10 0 59755   1662.000000  0   -1076552.815  -1899482.605   6522737.847
10 0 59755   1782.000000  0   -1010714.079  -1004736.649   6728732.183
10 0 59755   1902.000000  0    -911441.471    -93905.318   6816495.721
10 0 59755   2022.000000  0    -780330.584    816548.362   6784496.189
10 0 59755   2142.000000  0    -619818.779   1710204.146   6633291.774
10 0 59755   2262.000000  0    -433139.766   2570980.292   6365521.915
10 0 59755   2382.000000  0    -224259.631   3383422.820   5985864.054
10 0 59755   2502.000000  0       2204.234   4132984.756   5500956.947
10 0 59755   2622.000000  0     241080.509   4806290.266   4919290.217
10 0 59755   2742.000000  0     486756.595   5391380.431   4251062.381
10 0 59755   2862.000000  0     733303.132   5877933.337   3508004.468
10 0 59755   2982.000000  0     974608.041   6257454.612   2703180.687
10 0 59755   3102.000000  0    1204520.367   6523441.440   1850756.696
10 0 59755   3222.000000  0    1416995.510   6671499.683    965744.080
10 0 59755   3342.000000  0    1606240.837   6699421.947     63729.222
10 0 59755   3462.000000  0    1766857.576   6607220.605   -839409.295
10 0 59755   3582.000000  0    1893974.681   6397116.651  -1727788.259
10 0 59755   3702.000000  0    1983372.085   6073485.245  -2585806.459
10 0 59755   3822.000000  0    2031590.167   5642758.830  -3398424.895
10 0 59755   3942.000000  0    2036022.655   5113289.987  -4151434.397
10 0 59755   4062.000000  0    1994990.656   4495177.498  -4831703.928
10 0 59755   4182.000000  0    1907796.076   3800062.303  -5427404.592
10 0 59755   4302.000000  0    1774754.593   3040899.394  -5928207.221
10 0 59755   4422.000000  0    1597206.822   2231709.533  -6325451.708
10 0 59755   4542.000000  0    1377508.201   1387317.080  -6612284.613
10 0 59755   4662.000000  0    1118999.148    523079.784  -6783766.750
10 0 59755   4782.000000  0     825954.280   -345387.148  -6836949.844
10 0 59755   4902.000000  0     503512.013  -1202487.986  -6770920.812
10 0 59755   5022.000000  0     157586.300  -2032919.084  -6586814.109
10 0 59755   5142.000000  0    -205238.186  -2821934.066  -6287795.262
10 0 59755   5262.000000  0    -577827.921  -3555602.071  -5879013.805
10 0 59755   5382.000000  0    -952636.050  -4221051.793  -5367522.777
10 0 59755   5502.000000  0   -1321850.023  -4806698.817  -4762168.818
10 0 59755   5622.000000  0   -1677549.950  -5302453.298  -4073450.722
10 0 59755   5742.000000  0   -2011874.423  -5699902.491  -3313347.187
10 0 59755   5862.000000  0   -2317190.031  -5992463.879  -2495116.120
10 0 59755   5982.000000  0   -2586261.084  -6175505.757  -1633068.198
10 0 59755   6102.000000  0   -2812415.635  -6246432.029   -742317.166
10 0 59755   6222.000000  0   -2989703.490  -6204727.087    161489.213
10 0 59755   6342.000000  0   -3113041.360  -6051958.253   1062450.967
10 0 59755   6462.000000  0   -3178341.584  -5791736.369   1944704.192
10 0 59755   6582.000000  0   -3182620.901  -5429634.546   2792709.733
10 0 59755   6702.000000  0   -3124086.224  -4973067.505   3591534.832
10 0 59755   6822.000000  0   -3002195.358  -4431135.393   4327122.146
10 0 59755   6942.000000  0   -2817691.812  -3814435.705   4986540.570
10 0 59755   7062.000000  0   -2572613.212  -3134848.075   5558213.069
10 0 59755   7182.000000  0   -2270271.877  -2405297.817   6032117.242
10 0 59755   7302.000000  0   -1915209.657  -1639505.047   6399956.314
10 0 59755   7422.000000  0   -1513127.467   -851722.789   6655300.119
10 0 59755   7542.000000  0   -1070790.990    -56467.785   6793690.538
10 0 59755   7662.000000  0    -595916.620    731746.362   6812712.652
10 0 59755   7782.000000  0     -97037.116   1498673.096   6712035.282
10 0 59755   7902.000000  0     416651.624   2230590.250   6493416.648
10 0 59755   8022.000000  0     935459.777   2914545.473   6160675.076
10 0 59755   8142.000000  0    1449385.291   3538585.842   5719626.565
10 0 59755   8262.000000  0    1948305.669   4091969.949   5177989.081
10 0 59755   8382.000000  0    2422177.498   4565358.151   4545253.874
10 0 59755   8502.000000  0    2861239.815   4950976.399   3832523.500
10 0 59755   8622.000000  0    3256215.311   5242749.715   3052321.225
10 0 59755   8742.000000  0    3598508.724   5436407.176   2218373.439
10 0 59755   8862.000000  0    3880395.379   5529548.873   1345362.719
10 0 59755   8982.000000  0    4095192.306   5521674.674    448664.750
10 0 59755   9102.000000  0    4237411.316   5414175.769   -455931.252
10 0 59755   9222.000000  0    4302888.457   5210285.372  -1352508.946
99
